{"spkid": "50758869", "covariance": {"epoch": "2457766.5", "elements": [{"label": "e", "name": "e", "sigma": 4.31937262932959e-08, "title": "eccentricity", "value": ".3847285570747247", "units": null}, {"title": "perihelion distance", "value": ".9917561905376689", "units": "au", "sigma": 6.99873561992488e-08, "name": "q", "label": "q"}, {"label": "tp", "name": "tp", "sigma": 2.2502696705716e-05, "units": "TDB", "value": "2457688.174673714628", "title": "time of perihelion passage"}, {"label": "node", "sigma": 8.83986816197858e-05, "name": "om", "value": "238.4165385633439", "title": "longitude of the ascending node", "units": "deg"}, {"label": "peri", "sigma": 9.09308900659492e-05, "name": "w", "title": "argument of perihelion", "value": "158.5918945885872", "units": "deg"}, {"label": "i", "title": "inclination", "value": "4.835533528567165", "units": "deg", "name": "i", "sigma": 5.51795157893469e-06}], "data": [["1.865697991100161E-15", "-2.923807753785516E-15", "4.468100842233467E-13", "1.266402151164414E-13", "4.818305681862662E-13", "2.43600625377481E-15"], ["-2.923807753785516E-15", "4.898230027760524E-15", "-8.464877031494545E-13", "-4.268599444175644E-13", "-6.832182929889629E-13", "-8.537815160734778E-15"], ["4.468100842233467E-13", "-8.464877031494545E-13", "5.063713590294396E-10", "-1.975707237841534E-11", "5.618428196216616E-10", "5.163678639133607E-11"], ["1.266402151164414E-13", "-4.268599444175644E-13", "-1.975707237841534E-11", "7.81432691211626E-9", "-7.740736091065698E-9", "-1.907280114628123E-10"], ["4.818305681862662E-13", "-6.832182929889629E-13", "5.618428196216616E-10", "-7.740736091065698E-9", "8.268426768185741E-9", "2.397197772931787E-10"], ["2.43600625377481E-15", "-8.537815160734778E-15", "5.163678639133607E-11", "-1.907280114628123E-10", "2.397197772931787E-10", "3.044778962746779E-11"]], "labels": ["e", "q", "tp", "node", "peri", "i"]}, "elements": [{"value": ".3848050106366874", "title": "eccentricity", "units": null, "sigma": "4.3388E-8", "name": "e", "label": "e"}, {"title": "semi-major axis", "value": "1.612880518120477", "units": "au", "name": "a", "sigma": "2.6876E-8", "label": "a"}, {"sigma": "7.0133E-8", "name": "q", "units": "au", "value": ".9922360131894212", "title": "perihelion distance", "label": "q"}, {"label": "i", "units": "deg", "title": "inclination; angle with respect to x-y ecliptic plane", "value": "4.837199980996902", "name": "i", "sigma": "5.5161E-6"}, {"label": "node", "sigma": "8.8317E-5", "name": "om", "title": "longitude of the ascending node", "value": "238.3327736798709", "units": "deg"}, {"label": "peri", "sigma": "9.085E-5", "name": "w", "value": "158.7427788743057", "title": "argument of perihelion", "units": "deg"}, {"label": "M", "units": "deg", "title": "mean anomaly", "value": "250.4176087543885", "sigma": "4.1331E-5", "name": "ma"}, {"label": "tp", "units": "TDB", "title": "time of perihelion passage", "value": "2461428.240355073598", "name": "tp", "sigma": "9.1424E-5"}, {"label": "period", "sigma": "1.87E-5", "name": "per", "title": "sidereal orbital period", "value": "748.1724654350321", "units": "d"}, {"sigma": "1.2027E-8", "name": "n", "value": ".4811724791163953", "title": "mean motion", "units": "deg/d", "label": "n"}, {"label": "Q", "name": "ad", "sigma": "3.7217E-8", "title": "aphelion distance", "value": "2.233525023051533", "units": "au"}], "epoch": "2461200.5"}